{"type": "FeatureCollection", "features": [{"type": "Feature", "properties": {"name": "Gulshan, Dhaka, Bangladesh", "display_name": "Gulshan, Dhaka, Dhaka Metropolitan, Dhaka District, Dhaka Division, Bangladesh"}, "geometry": {"type": "Polygon", "coordinates": [[[90.3963525, 23.7891807], [90.3969544, 23.786599], [90.3989741, 23.7863348], [90.3993392, 23.786287], [90.3996095, 23.7862928], [90.3996056, 23.7862694], [90.3995378, 23.7858616], [90.3993059, 23.7845958], [90.3990924, 23.7833101], [90.3988651, 23.7820012], [90.3985264, 23.778073], [90.3977378, 23.7778813], [90.3977697, 23.7773867], [90.3975915, 23.776462], [90.3973487, 23.7750439], [90.397328, 23.7749514], [90.3971426, 23.7740753], [90.3971214, 23.7739829], [90.3971265, 23.7739703], [90.3971524, 23.7738726], [90.3973934, 23.7737738], [90.3977401, 23.7737234], [90.3989018, 23.7736688], [90.399687, 23.773715], [90.3998936, 23.7737297], [90.4001485, 23.7737444], [90.4008622, 23.7738014], [90.4019639, 23.7738878], [90.4027181, 23.7740275], [90.4032008, 23.7742224], [90.4032324, 23.7742271], [90.4036077, 23.774193], [90.4036347, 23.7741909], [90.403788, 23.7741284], [90.4041501, 23.7740596], [90.404259, 23.7740662], [90.4042971, 23.7740638], [90.4043889, 23.7741247], [90.4045312, 23.7743096], [90.4047402, 23.7745449], [90.404832, 23.7746583], [90.4048618, 23.7747025], [90.4049674, 23.7747277], [90.4051787, 23.774713], [90.4055804, 23.7746436], [90.4056447, 23.7746415], [90.4058996, 23.7746121], [90.4061521, 23.7745659], [90.4063909, 23.7745155], [90.4066515, 23.774465], [90.406902, 23.7744194], [90.4070033, 23.7744041], [90.4071522, 23.7743828], [90.4074068, 23.7743629], [90.4076596, 23.7743537], [90.4078149, 23.7743513], [90.4079142, 23.7743492], [90.4081696, 23.7743424], [90.408425, 23.7743261], [90.4086753, 23.7742964], [90.4089278, 23.7742586], [90.409174, 23.774215], [90.409399, 23.774172], [90.409422, 23.7741672], [90.4096734, 23.7741163], [90.4099213, 23.7740648], [90.4101681, 23.7740128], [90.4104161, 23.773964], [90.4106669, 23.7739188], [90.4109163, 23.7738731], [90.4109809, 23.7738594], [90.4111685, 23.7738237], [90.4114113, 23.7737675], [90.4116547, 23.7736971], [90.4118871, 23.7736147], [90.4121213, 23.7735191], [90.4123492, 23.7734193], [90.4125793, 23.7733158], [90.4128055, 23.7732139], [90.4130356, 23.773113], [90.4132664, 23.7730169], [90.4134954, 23.7729162], [90.4136336, 23.7728785], [90.4136465, 23.7728752], [90.4136969, 23.7728462], [90.4139893, 23.7726765], [90.4140519, 23.7726408], [90.4142392, 23.7725331], [90.414303, 23.7725037], [90.4144671, 23.7724297], [90.4145142, 23.7724008], [90.4145555, 23.7723787], [90.4146307, 23.7723325], [90.4146783, 23.7723047], [90.4150738, 23.7720341], [90.415293, 23.7720825], [90.4155823, 23.7721928], [90.4157522, 23.7722222], [90.415921, 23.7722758], [90.4161655, 23.7723052], [90.4164192, 23.7723167], [90.4167824, 23.7724946], [90.4171469, 23.7727757], [90.4173929, 23.7728182], [90.4177142, 23.7726557], [90.4179249, 23.7723938], [90.4180928, 23.7720678], [90.4182622, 23.7719954], [90.4185072, 23.7719244], [90.4187105, 23.7718024], [90.418862, 23.7716208], [90.4189964, 23.7714166], [90.4191479, 23.7712271], [90.4194999, 23.7708562], [90.4196933, 23.7707063], [90.4199066, 23.770633], [90.420147, 23.7706621], [90.4206605, 23.7708295], [90.4209059, 23.7708447], [90.4211511, 23.7707887], [90.4213911, 23.7706893], [90.4216117, 23.7705621], [90.4217952, 23.7704076], [90.4220393, 23.7699749], [90.4222277, 23.7698622], [90.4224951, 23.7698694], [90.4227725, 23.7698946], [90.4228031, 23.7698849], [90.4228142, 23.7698894], [90.422908, 23.7698891], [90.4230702, 23.7698711], [90.4232258, 23.7698249], [90.4232895, 23.7697807], [90.4233532, 23.7697035], [90.4234118, 23.7695743], [90.423445, 23.7694031], [90.4235227, 23.7691524], [90.4235844, 23.769027], [90.4236345, 23.7689723], [90.4237452, 23.7688032], [90.424146, 23.768611], [90.4243285, 23.768514], [90.4243316, 23.7685156], [90.4244325, 23.7685649], [90.4252192, 23.768872], [90.4259137, 23.7691021], [90.4260597, 23.769222], [90.4264609, 23.7695514], [90.4266452, 23.7696423], [90.4269362, 23.7697857], [90.4270441, 23.7698729], [90.4270653, 23.769948], [90.4271158, 23.770134], [90.4272229, 23.7702293], [90.4275153, 23.7703595], [90.4275368, 23.7704174], [90.4275598, 23.7706348], [90.4275868, 23.7709573], [90.4275756, 23.770977], [90.4275681, 23.7712197], [90.4275667, 23.7712473], [90.4277859, 23.7729975], [90.4278709, 23.7735911], [90.42789, 23.7737627], [90.4279152, 23.7739475], [90.4279336, 23.774114], [90.4279547, 23.7742381], [90.4279891, 23.7745197], [90.4268928, 23.7746352], [90.4268573, 23.7746594], [90.4268286, 23.7746573], [90.426778, 23.7747056], [90.4267803, 23.7747644], [90.4267729, 23.7749719], [90.4267293, 23.7750468], [90.4266369, 23.7754596], [90.4266159, 23.7760395], [90.4266308, 23.7761498], [90.426668, 23.7762205], [90.4267146, 23.7763092], [90.4267933, 23.7764581], [90.4268957, 23.7767964], [90.426894, 23.7769067], [90.4268205, 23.7771992], [90.4267625, 23.7775829], [90.4267565, 23.7778574], [90.4267749, 23.7781778], [90.4268773, 23.7784816], [90.4268742, 23.778525], [90.426875, 23.7788905], [90.42676, 23.7791482], [90.4266518, 23.7792831], [90.4266366, 23.7793853], [90.4266216, 23.7798774], [90.4266466, 23.7802624], [90.4267407, 23.7803622], [90.4269035, 23.7804754], [90.4269732, 23.780602], [90.4271132, 23.7807659], [90.4272464, 23.7815243], [90.4272762, 23.7816924], [90.4273015, 23.7821399], [90.427251, 23.7824445], [90.427189, 23.7828164], [90.4272028, 23.7833374], [90.4271637, 23.7838143], [90.4270145, 23.7841588], [90.4269732, 23.7845601], [90.4269273, 23.7851546], [90.426964, 23.7856693], [90.4268974, 23.7864319], [90.4269158, 23.7868983], [90.4269832, 23.7874901], [90.4269799, 23.7876496], [90.426978, 23.7877486], [90.4267445, 23.7877234], [90.4264931, 23.7876964], [90.4264965, 23.7876895], [90.4262836, 23.7876221], [90.4261223, 23.7875708], [90.4259266, 23.7875094], [90.4257782, 23.7874461], [90.4256146, 23.7873752], [90.4254797, 23.7873166], [90.4254017, 23.7872828], [90.4253948, 23.7873279], [90.4253833, 23.7873416], [90.4253649, 23.7875947], [90.4252106, 23.7886662], [90.4251813, 23.7889098], [90.4251813, 23.7889461], [90.4251955, 23.7889697], [90.425206, 23.788987], [90.4252972, 23.7890096], [90.4254407, 23.7890432], [90.4255314, 23.7891178], [90.4256163, 23.789153], [90.4257667, 23.7891866], [90.425809, 23.789207], [90.4259596, 23.7892901], [90.4260858, 23.789371], [90.4260629, 23.789643], [90.4260273, 23.7902906], [90.4260267, 23.7904429], [90.4259716, 23.7906377], [90.4259171, 23.7908688], [90.4258666, 23.7912564], [90.4258, 23.7916545], [90.4257185, 23.7919218], [90.4256318, 23.7922243], [90.4256272, 23.7922449], [90.4255635, 23.7925305], [90.4255509, 23.792613], [90.4255485, 23.7926333], [90.4255153, 23.7929128], [90.4254654, 23.7931544], [90.4254367, 23.7938466], [90.4255005, 23.7944653], [90.425514, 23.794486], [90.4255233, 23.7945165], [90.4255435, 23.7945823], [90.4255169, 23.7948882], [90.4254731, 23.795147], [90.4253426, 23.795714], [90.4249896, 23.7967088], [90.4249386, 23.7969496], [90.4248162, 23.7974353], [90.4247649, 23.7976827], [90.4247349, 23.7978145], [90.4245525, 23.7977876], [90.4243421, 23.797757], [90.4240207, 23.7977171], [90.4237314, 23.7976499], [90.423573, 23.7976142], [90.4235019, 23.7976436], [90.4220164, 23.8050167], [90.4218649, 23.8058002], [90.4216813, 23.806758], [90.4215045, 23.8077641], [90.4213713, 23.8086085], [90.4213346, 23.8096714], [90.4213461, 23.8097764], [90.4212416, 23.8113979], [90.421066, 23.8113727], [90.4208098, 23.8113773], [90.420744, 23.81125], [90.4206075, 23.8109261], [90.4201608, 23.8109857], [90.4199031, 23.8110424], [90.4195134, 23.8110146], [90.4194445, 23.8110345], [90.419429, 23.8110739], [90.4194043, 23.8110934], [90.4193636, 23.8110991], [90.4192993, 23.8111081], [90.4192362, 23.8110976], [90.4191925, 23.8111249], [90.4191352, 23.8112698], [90.4191007, 23.8114945], [90.4186232, 23.8114819], [90.4180492, 23.8114126], [90.4178724, 23.8114399], [90.4171561, 23.8112047], [90.4170217, 23.8112037], [90.4163755, 23.8112047], [90.4157511, 23.8112971], [90.415448, 23.8114483], [90.4150807, 23.8115408], [90.4146031, 23.8115156], [90.4142725, 23.8112719], [90.4139511, 23.8108602], [90.4138409, 23.8104569], [90.4134828, 23.8092891], [90.413734, 23.8087593], [90.4137687, 23.8087032], [90.4141145, 23.8083657], [90.4148361, 23.8077442], [90.415571, 23.8071234], [90.4157841, 23.8068334], [90.415642, 23.8063196], [90.4137977, 23.8060665], [90.4124133, 23.805091], [90.4123221, 23.8045699], [90.4107021, 23.8043433], [90.4089027, 23.8041888], [90.4075044, 23.8047478], [90.4067421, 23.8044033], [90.4068636, 23.8034735], [90.4064345, 23.8023994], [90.4063518, 23.8015676], [90.4060396, 23.8012483], [90.4059202, 23.8012273], [90.4052223, 23.8011936], [90.4046713, 23.8011474], [90.4041662, 23.8011432], [90.4036519, 23.801181], [90.4031193, 23.8012399], [90.4028621, 23.8012609], [90.4025637, 23.8013197], [90.4023157, 23.8012987], [90.4021367, 23.8012735], [90.4020448, 23.801055], [90.40193, 23.8000929], [90.4019071, 23.7998325], [90.4016408, 23.7982948], [90.4014295, 23.7969546], [90.4013193, 23.7969462], [90.4011077, 23.7966253], [90.4006122, 23.7964462], [90.4005847, 23.7963706], [90.399974, 23.7963916], [90.3978163, 23.7958843], [90.3976558, 23.7958465], [90.3975142, 23.794902], [90.3974708, 23.7944145], [90.3963525, 23.7891807]]]}}]}